{
    "links": {
        "self": "http://www.neowsapp.com/rest/v1/neo/3667131?api_key=iIulBulltgU6a56xZRHN4H3l9WmuAYTsLGpBGhQ2"
    },
    "id": "3667131",
    "neo_reference_id": "3667131",
    "name": "(2014 GL35)",
    "designation": "2014 GL35",
    "nasa_jpl_url": "http://ssd.jpl.nasa.gov/sbdb.cgi?sstr=3667131",
    "absolute_magnitude_h": 20.6,
    "estimated_diameter": {
        "kilometers": {
            "estimated_diameter_min": 0.2016299194,
            "estimated_diameter_max": 0.4508582062
        },
        "meters": {
            "estimated_diameter_min": 201.6299194428,
            "estimated_diameter_max": 450.8582061718
        },
        "miles": {
            "estimated_diameter_min": 0.1252869847,
            "estimated_diameter_max": 0.2801502144
        },
        "feet": {
            "estimated_diameter_min": 661.5155049046,
            "estimated_diameter_max": 1479.1936371367
        }
    },
    "is_potentially_hazardous_asteroid": false,
    "close_approach_data": [
        {
            "close_approach_date": "2011-01-11",
            "close_approach_date_full": "2011-Jan-11 13:11",
            "epoch_date_close_approach": 1294751460000,
            "relative_velocity": {
                "kilometers_per_second": "22.8459145498",
                "kilometers_per_hour": "82245.2923793945",
                "miles_per_hour": "51104.0262565188"
            },
            "miss_distance": {
                "astronomical": "0.1366443484",
                "lunar": "53.1546515276",
                "kilometers": "20441703.468177908",
                "miles": "12701885.5408668104"
            },
            "orbiting_body": "Venus"
        },
        {
            "close_approach_date": "2014-03-21",
            "close_approach_date_full": "2014-Mar-21 08:38",
            "epoch_date_close_approach": 1395391080000,
            "relative_velocity": {
                "kilometers_per_second": "21.9609144878",
                "kilometers_per_hour": "79059.2921561794",
                "miles_per_hour": "49124.3696178216"
            },
            "miss_distance": {
                "astronomical": "0.1239554295",
                "lunar": "48.2186620755",
                "kilometers": "18543468.228135165",
                "miles": "11522376.857248677"
            },
            "orbiting_body": "Earth"
        },
        {
            "close_approach_date": "2014-05-05",
            "close_approach_date_full": "2014-May-05 15:38",
            "epoch_date_close_approach": 1399304280000,
            "relative_velocity": {
                "kilometers_per_second": "23.2864590164",
                "kilometers_per_hour": "83831.2524592099",
                "miles_per_hour": "52089.4801738907"
            },
            "miss_distance": {
                "astronomical": "0.0756169486",
                "lunar": "29.4149930054",
                "kilometers": "11312134.446459482",
                "miles": "7029034.4043735716"
            },
            "orbiting_body": "Mars"
        }
    ],
    "orbital_data": {
        "orbit_id": "13",
        "orbit_determination_date": "2017-04-06 08:41:40",
        "first_observation_date": "2014-04-06",
        "last_observation_date": "2014-04-29",
        "data_arc_in_days": 23,
        "observations_used": 63,
        "orbit_uncertainty": "7",
        "minimum_orbit_intersection": ".0862172",
        "jupiter_tisserand_invariant": "3.229",
        "epoch_osculation": "2459000.5",
        "eccentricity": ".7807279232264122",
        "semi_major_axis": "2.136202415118798",
        "inclination": "7.827392713234795",
        "ascending_node_longitude": "224.4503047386064",
        "orbital_period": "1140.412658924159",
        "perihelion_distance": ".468409539971853",
        "perihelion_argument": "218.4159686724888",
        "aphelion_distance": "3.803995290265744",
        "perihelion_time": "2458978.346041546569",
        "mean_anomaly": "6.993455378475867",
        "mean_motion": ".3156752050960362",
        "equinox": "J2000",
        "orbit_class": {
            "orbit_class_type": "APO",
            "orbit_class_description": "Near-Earth asteroid orbits which cross the Earth’s orbit similar to that of 1862 Apollo",
            "orbit_class_range": "a (semi-major axis) > 1.0 AU; q (perihelion) < 1.017 AU"
        }
    },
    "is_sentry_object": false
}